COSMOS 1892             
1 18421U 87088A   20081.74865710  .00000342  00000-0  15579-4 0  9996
2 18421  82.5034   0.3443 0015602  16.8408 343.3340 15.17072163771474
SL-14 R/B               
1 18749U 88001B   20082.54370887  .00000067  00000-0  52929-5 0  9995
2 18749  82.5115  79.0900 0017680 221.1494 284.0006 14.83212517740086
COSMOS 1933             
1 18958U 88020A   20082.42171745  .00000587  00000-0  40720-4 0  9999
2 18958  82.5312 209.6232 0013134  88.9164 271.3567 15.03695443743179
SL-3 R/B                
1 19046U 88032B   20082.29657992  .00000249  00000-0  22781-4 0  9991
2 19046  97.4083 107.1906 0037513 141.5368 218.8543 15.02666719724168
SL-16 R/B               
1 19120U 88039B   20082.21026991  .00000144  00000-0  91162-4 0  9995
2 19120  71.0176 352.8714 0019684  80.1034 280.2312 14.19208403649549
COSMOS 1953             
1 19210U 88050A   20082.27132223  .00000306  00000-0  18998-4 0  9996
2 19210  82.5149 134.4627 0015096  60.5278 299.7453 15.05924029729677
SL-8 R/B                
1 19257U 88053B   20081.76458602  .00000040  00000-0  22088-4 0  9995
2 19257  74.0496 162.2212 0020080 166.4858 332.4584 14.37458937663689
COSMOS 1975             
1 19573U 88093A   20082.58222023 -.00000020  00000-0 -35320-5 0  9991
2 19573  82.5171  88.3242 0015848  99.1318 261.1702 15.04836685711582
SL-14 R/B               
1 19574U 88093B   20082.53911796  .00000079  00000-0  66903-5 0  9992
2 19574  82.5290 281.3133 0022404  32.1453  23.7319 14.83322872699071
SL-16 R/B               
1 19650U 88102B   20082.15752258  .00000129  00000-0  89824-4 0  9994
2 19650  71.0005  53.4696 0011972  86.7993 273.4500 14.15790457618808
INTERCOSMOS 24          
1 20261U 89080A   20082.43560507  .00000058  00000-0  17005-4 0  9998
2 20261  82.5997  76.5954 1201751 288.6247  58.8220 12.56098912392667
SL-14 R/B               
1 20262U 89080C   20082.50296022  .00000074  00000-0  12596-4 0  9993
2 20262  82.5912 129.6388 1237875 115.3751 258.0602 12.48936512387714
DELTA 2 R/B(1)          
1 20303U 89085B   20082.58245328  .00001605  00000-0  54006-4 0  9998
2 20303  35.6273 196.1631 0094721 123.8973 237.0805 15.27044375654771
DELTA 1 R/B             
1 20323U 89089B   20081.48057447  .00000018  00000-0  13454-4 0  9994
2 20323  97.0759 241.4374 0072652 146.9868 213.5896 14.48337847600669
DELTA 2 R/B(1)          
1 20362U 89097B   20071.22570222  .11608607  21938-5  21862-3 0  9997
2 20362  35.6253  35.8055 0001537 235.4649 152.4826 16.47656705656668
ARIANE 40 R/B           
1 20443U 90005H   20081.70707275 -.00000011  00000-0  11239-4 0  9996
2 20443  98.5862 143.6320 0009483 240.8267 119.1971 14.38082720579763
DELTA 2 R/B(1)          
1 20453U 90008B   20082.37786898  .00001436  00000-0  81729-4 0  9994
2 20453  35.6268  49.7178 0282044 297.9906  59.2536 14.85347907598240
COSMOS 2058             
1 20465U 90010A   20081.74381587  .00000181  00000-0  12968-4 0  9991
2 20465  82.4925 357.7478 0016510 132.5168 227.7453 14.97980824636309
SL-14 R/B               
1 20466U 90010B   20082.27467302  .00000070  00000-0  60334-5 0  9999
2 20466  82.5039 148.3709 0018962 263.3344  96.5712 14.81378647626889
SL-14 R/B               
1 20511U 90018B   20082.46952654  .00000071  00000-0  63252-5 0  9991
2 20511  82.5198  94.1717 0018604  46.8932 115.2393 14.80034842621348
HST                     
1 20580U 90037B   20082.48204032  .00000483  00000-0  18392-4 0  9991
2 20580  28.4688 174.8887 0002473 233.0539 244.8959 15.09356729442892
SL-16 R/B               
1 20625U 90046B   20082.39090602 -.00000010  00000-0  19319-4 0  9994
2 20625  71.0003 190.9399 0013948   4.8327 355.2927 14.14656908540553
COSMOS 2084             
1 20663U 90055A   20082.46319836  .00000008  00000-0  18765-4 0  9997
2 20663  62.7936  98.6269 0034944 225.6666 134.1563 14.92066095610382
SL-6 R/B(2)             
1 20666U 90055D   20082.26234782 -.00000021  00000-0  15846-4 0  9997
2 20666  62.7882  15.9280 0032733 317.1003  42.7538 14.92317381611751
SL-8 R/B                
1 20775U 90078B   20082.31836298  .00001858  00000-0  87450-4 0  9997
2 20775  82.9249 298.4758 0575885 104.5990 261.9758 14.34143011493248
SL-8 R/B                
1 21088U 91006B   20081.76121160  .00000030  00000-0  14530-4 0  9990
2 21088  82.9463 350.4259 0023128  19.9820  32.2382 13.77144227464413
OKEAN-3                 
1 21397U 91039A   20082.58366853  .00000237  00000-0  20289-4 0  9997
2 21397  82.5192 259.2542 0019350  99.8020 260.5387 14.92900627560367
COSMOS 2151             
1 21422U 91042A   20082.07905227  .00000136  00000-0  10814-4 0  9999
2 21422  82.5039   6.1333 0014578 159.0895 201.0924 14.92115470558930
SL-14 R/B               
1 21423U 91042B   20082.57260464  .00000073  00000-0  66738-5 0  9999
2 21423  82.4907  98.1102 0017577 178.8979 181.2276 14.79785352551853
ERS-1                   
1 21574U 91050A   20082.14661856  .00000021  00000-0  21779-4 0  9996
2 21574  98.5879  35.5244 0032729 185.0888 174.9971 14.37733720502553
ARIANE 40 R/B           
1 21610U 91050F   20082.55118865 -.00000001  00000-0  13240-4 0  9992
2 21610  98.4732 152.6192 0003917 145.4430 353.3842 14.40897122505468
INTERCOSMOS 25          
1 21819U 91086A   20082.50039169  .00000128  00000-0  17968-4 0  9996
2 21819  82.6089 178.3481 1515366  97.3614 280.1582 12.05182815233833
SL-8 R/B                
1 21876U 92008B   20082.47893097  .00000110  00000-0  97789-4 0  9998
2 21876  82.9230  87.0704 0036224  96.4147  57.0990 13.75650458410148
SL-8 R/B                
1 21938U 92020B   20081.22317312  .00000041  00000-0  27297-4 0  9994
2 21938  82.9323 332.0811 0027886 259.5935 214.8685 13.75276224401849
COSMOS 2219             
1 22219U 92076A   20081.75685654 -.00000259  00000-0 -11200-3 0  9992
2 22219  71.0588 250.9061 0020881 286.5734  73.3095 14.13641947410747
SL-16 R/B               
1 22220U 92076B   20082.43465192  .00000093  00000-0  70928-4 0  9990
2 22220  70.9972  94.7639 0012991 185.4041 277.2355 14.16453416413685
COSMOS 2221             
1 22236U 92080A   20081.99944093  .00000166  00000-0  15433-4 0  9995
2 22236  82.5110 186.2835 0015287 249.7136 110.2438 14.87904559477315
SL-16 R/B               
1 22285U 92093B   20082.42230878 -.00000074  00000-0 -13844-4 0  9995
2 22285  71.0204 255.0960 0003741 356.1851   3.9242 14.15044661405300
COSMOS 2228             
1 22286U 92094A   20082.30066607  .00000205  00000-0  19468-4 0  9993
2 22286  82.5202 142.1439 0021409  15.1444 345.0410 14.88121543472557
SL-16 R/B               
1 22566U 93016B   20081.80763314 -.00000036  00000-0  61202-5 0  9999
2 22566  71.0064 109.7304 0009091  26.5462 333.6125 14.14968881393940
COSMOS 2242             
1 22626U 93024A   20082.60615781  .00000153  00000-0  13934-4 0  9995
2 22626  82.5242 169.9365 0019126  14.4878 345.6884 14.87976602456242
SL-16 R/B               
1 22803U 93059B   20082.49152740 -.00000112  00000-0 -31676-4 0  9998
2 22803  70.9876 282.5298 0019392 286.0000  73.8988 14.16819216371249
ARIANE 40 R/B           
1 22830U 93061H   20081.71968894 -.00000009  00000-0  13758-4 0  9995
2 22830  98.7773 130.0444 0010394 214.1658 145.8856 14.31445574382523
COSMOS 2278             
1 23087U 94023A   20082.36446186  .00000222  00000-0  14218-3 0  9993
2 23087  71.0553  49.6823 0007074 122.1045 238.0765 14.13805651337130
SL-16 R/B               
1 23088U 94023B   20082.64271149  .00000118  00000-0  86206-4 0  9991
2 23088  71.0004 323.3321 0003552 331.4488  28.6439 14.14678797338301
SL-16 R/B               
1 23343U 94074B   20082.43742065  .00000020  00000-0  10217-4 0  9999
2 23343  98.0112 136.1523 0008206  74.5870 295.8841 14.76815023365789
SL-16 R/B               
1 23405U 94077B   20081.48734399 -.00000189  00000-0 -72662-4 0  9996
2 23405  70.9818 255.4173 0004823 249.9133 110.1470 14.15220651308163
ERS-2                   
1 23560U 95021A   20082.38139795  .00000770  00000-0  36473-4 0  9991
2 23560  98.5276 224.0548 0004672 106.1192 254.0556 15.23066475328895
ARIANE 40+ R/B          
1 23561U 95021B   20081.87066309  .00000036  00000-0  27071-4 0  9994
2 23561  98.7357 119.6690 0007627 146.9927  25.7149 14.37960135306208
SL-16 R/B               
1 23705U 95058B   20081.44232992  .00000153  00000-0  10334-3 0  9993
2 23705  71.0197  73.6108 0013629 209.7760 150.2589 14.15133669259826
SL-16 R/B               
1 24298U 96051B   20082.40979618  .00000120  00000-0  91144-4 0  9998
2 24298  70.8403  94.0198 0014343 134.5253 225.7041 14.12491039214325
ORBVIEW 2 (SEASTAR)     
1 24883U 97037A   20081.73620724  .00000008  00000-0  18886-4 0  9996
2 24883  98.5995 195.5199 0002540  31.3737 328.7598 14.33544606196404
SL-16 R/B               
1 25400U 98043G   20081.76213698 -.00000023  00000-0  88210-5 0  9998
2 25400  98.6008  19.3403 0009050 226.4921 133.5508 14.25450191128754
SL-16 R/B               
1 25407U 98045B   20081.73047353 -.00000011  00000-0  18425-4 0  9994
2 25407  71.0092  81.9624 0005676 118.5221 241.6474 14.15799643118932
ISS (ZARYA)             
1 25544U 98067A   20083.67343750  .00001332  00000-0  32446-4 0  9990
2 25544  51.6446  51.5818 0004938  47.4193 293.1498 15.48913779218751
SL-8 R/B                
1 25723U 99022C   20082.44511963  .00015057  00000-0  11860-3 0  9993
2 25723  48.4107 121.5327 0006915 285.1756  74.8431 15.71554193164280
CZ-4B R/B               
1 25732U 99025C   20082.37060181 -.00000028  00000-0  84812-5 0  9991
2 25732  98.9544 110.4613 0038386  98.6475 272.8046 14.17674030 79629
OKEAN-O                 
1 25860U 99039A   20081.76027851  .00000015  00000-0  98351-5 0  9995
2 25860  98.2206  99.2014 0001713 108.7171 251.4224 14.76651123112664
SL-16 R/B               
1 25861U 99039B   20082.58420191  .00000016  00000-0  97425-5 0  9993
2 25861  98.2073  83.0308 0016970  77.9698  33.3005 14.78568433114924
